[{"OBJECT_NAME":"STARLINK-32418","OBJECT_ID":"2024-249W","EPOCH":"2026-03-09T02:20:02.663520","MEAN_MOTION":15.2759446,"ECCENTRICITY":0.0002836,"INCLINATION":43.0035,"RA_OF_ASC_NODE":317.363,"ARG_OF_PERICENTER":248.5584,"MEAN_ANOMALY":111.4966,"EPHEMERIS_TYPE":0,"CLASSIFICATION_TYPE":"U","NORAD_CAT_ID":62429,"ELEMENT_SET_NO":999,"REV_AT_EPOCH":6772,"BSTAR":0.0013582407,"MEAN_MOTION_DOT":0.00037322,"MEAN_MOTION_DDOT":0},{"OBJECT_NAME":"OBJECT H","OBJECT_ID":"2026-023H","EPOCH":"2026-03-09T17:12:47.154816","MEAN_MOTION":15.23139098,"ECCENTRICITY":0.00239537,"INCLINATION":96.639,"RA_OF_ASC_NODE":144.1723,"ARG_OF_PERICENTER":117.6533,"MEAN_ANOMALY":242.7142,"EPHEMERIS_TYPE":0,"CLASSIFICATION_TYPE":"U","NORAD_CAT_ID":67681,"ELEMENT_SET_NO":999,"REV_AT_EPOCH":484,"BSTAR":0.00052586846,"MEAN_MOTION_DOT":0.00012465,"MEAN_MOTION_DDOT":0}]
